CCSDS_OMM_VERS = 2.0
CREATION_DATE  = 
ORIGINATOR     = 

OBJECT_NAME    = STARLINK-36697
OBJECT_ID      = 2026-025F
CENTER_NAME    = EARTH
REF_FRAME      = TEME
TIME_SYSTEM    = UTC
MEAN_ELEMENT_THEORY = SGP/SGP4

EPOCH          = 2026-03-05T19:29:03.638688
MEAN_MOTION    = 15.80884822
ECCENTRICITY   = .00010989
INCLINATION    = 97.2840
RA_OF_ASC_NODE = 176.2622
ARG_OF_PERICENTER = 68.4800
MEAN_ANOMALY   = 291.6585

EPHEMERIS_TYPE = 0
CLASSIFICATION_TYPE = U
NORAD_CAT_ID   = 67698
ELEMENT_SET_NO = 999
REV_AT_EPOCH   = 533
BSTAR          = .13392021E-2
MEAN_MOTION_DOT = .265163E-2
MEAN_MOTION_DDOT = 0

CCSDS_OMM_VERS = 2.0
CREATION_DATE  = 
ORIGINATOR     = 

OBJECT_NAME    = STARLINK-36716
OBJECT_ID      = 2026-025G
CENTER_NAME    = EARTH
REF_FRAME      = TEME
TIME_SYSTEM    = UTC
MEAN_ELEMENT_THEORY = SGP/SGP4

EPOCH          = 2026-03-05T22:00:01.999584
MEAN_MOTION    = 15.75172449
ECCENTRICITY   = .00013189
INCLINATION    = 97.2844
RA_OF_ASC_NODE = 176.3585
ARG_OF_PERICENTER = 88.8801
MEAN_ANOMALY   = 111.5871

EPHEMERIS_TYPE = 0
CLASSIFICATION_TYPE = U
NORAD_CAT_ID   = 67699
ELEMENT_SET_NO = 999
REV_AT_EPOCH   = 540
BSTAR          = .4798769E-3
MEAN_MOTION_DOT = .71998E-3
MEAN_MOTION_DDOT = 0

CCSDS_OMM_VERS = 2.0
CREATION_DATE  = 
ORIGINATOR     = 

OBJECT_NAME    = STARLINK-36712
OBJECT_ID      = 2026-025H
CENTER_NAME    = EARTH
REF_FRAME      = TEME
TIME_SYSTEM    = UTC
MEAN_ELEMENT_THEORY = SGP/SGP4

EPOCH          = 2026-03-05T20:06:06.368544
MEAN_MOTION    = 15.75177143
ECCENTRICITY   = .00014367
INCLINATION    = 97.2845
RA_OF_ASC_NODE = 176.2249
ARG_OF_PERICENTER = 75.6837
MEAN_ANOMALY   = 284.4588

EPHEMERIS_TYPE = 0
CLASSIFICATION_TYPE = U
NORAD_CAT_ID   = 67700
ELEMENT_SET_NO = 999
REV_AT_EPOCH   = 533
BSTAR          = .18707368E-2
MEAN_MOTION_DOT = .288376E-2
MEAN_MOTION_DDOT = 0

CCSDS_OMM_VERS = 2.0
CREATION_DATE  = 
ORIGINATOR     = 

OBJECT_NAME    = STARLINK-36713
OBJECT_ID      = 2026-025J
CENTER_NAME    = EARTH
REF_FRAME      = TEME
TIME_SYSTEM    = UTC
MEAN_ELEMENT_THEORY = SGP/SGP4

EPOCH          = 2026-03-05T18:37:10.365024
MEAN_MOTION    = 15.75334045
ECCENTRICITY   = .00017706
INCLINATION    = 97.2850
RA_OF_ASC_NODE = 176.1559
ARG_OF_PERICENTER = 56.3413
MEAN_ANOMALY   = 303.8021

EPHEMERIS_TYPE = 0
CLASSIFICATION_TYPE = U
NORAD_CAT_ID   = 67701
ELEMENT_SET_NO = 999
REV_AT_EPOCH   = 533
BSTAR          = .23505308E-2
MEAN_MOTION_DOT = .368305E-2
MEAN_MOTION_DDOT = 0

CCSDS_OMM_VERS = 2.0
CREATION_DATE  = 
ORIGINATOR     = 

OBJECT_NAME    = STARLINK-36695
OBJECT_ID      = 2026-025K
CENTER_NAME    = EARTH
REF_FRAME      = TEME
TIME_SYSTEM    = UTC
MEAN_ELEMENT_THEORY = SGP/SGP4

EPOCH          = 2026-03-05T20:11:41.470080
MEAN_MOTION    = 15.75181901
ECCENTRICITY   = .00008579
INCLINATION    = 97.2860
RA_OF_ASC_NODE = 176.2178
ARG_OF_PERICENTER = 92.5114
MEAN_ANOMALY   = 267.6249

EPHEMERIS_TYPE = 0
CLASSIFICATION_TYPE = U
NORAD_CAT_ID   = 67702
ELEMENT_SET_NO = 999
REV_AT_EPOCH   = 533
BSTAR          = .22471163E-2
MEAN_MOTION_DOT = .349004E-2
MEAN_MOTION_DDOT = 0

CCSDS_OMM_VERS = 2.0
CREATION_DATE  = 
ORIGINATOR     = 

OBJECT_NAME    = STARLINK-36630
OBJECT_ID      = 2026-025L
CENTER_NAME    = EARTH
REF_FRAME      = TEME
TIME_SYSTEM    = UTC
MEAN_ELEMENT_THEORY = SGP/SGP4

EPOCH          = 2026-03-05T17:46:29.234496
MEAN_MOTION    = 15.80780668
ECCENTRICITY   = .00014611
INCLINATION    = 97.2861
RA_OF_ASC_NODE = 176.2053
ARG_OF_PERICENTER = 66.8263
MEAN_ANOMALY   = 293.3159

EPHEMERIS_TYPE = 0
CLASSIFICATION_TYPE = U
NORAD_CAT_ID   = 67703
ELEMENT_SET_NO = 999
REV_AT_EPOCH   = 532
BSTAR          = .21205612E-4
MEAN_MOTION_DOT = .3915E-4
MEAN_MOTION_DDOT = 0

CCSDS_OMM_VERS = 2.0
CREATION_DATE  = 
ORIGINATOR     = 

OBJECT_NAME    = STARLINK-36338
OBJECT_ID      = 2026-025M
CENTER_NAME    = EARTH
REF_FRAME      = TEME
TIME_SYSTEM    = UTC
MEAN_ELEMENT_THEORY = SGP/SGP4

EPOCH          = 2026-03-05T05:57:22.550688
MEAN_MOTION    = 15.75302844
ECCENTRICITY   = .0001245
INCLINATION    = 97.2845
RA_OF_ASC_NODE = 175.6477
ARG_OF_PERICENTER = 176.5980
MEAN_ANOMALY   = 183.5294

EPHEMERIS_TYPE = 0
CLASSIFICATION_TYPE = U
NORAD_CAT_ID   = 67704
ELEMENT_SET_NO = 999
REV_AT_EPOCH   = 524
BSTAR          = .19334E-2
MEAN_MOTION_DOT = .300071E-2
MEAN_MOTION_DDOT = 0

CCSDS_OMM_VERS = 2.0
CREATION_DATE  = 
ORIGINATOR     = 

OBJECT_NAME    = STARLINK-36316
OBJECT_ID      = 2026-025N
CENTER_NAME    = EARTH
REF_FRAME      = TEME
TIME_SYSTEM    = UTC
MEAN_ELEMENT_THEORY = SGP/SGP4

EPOCH          = 2026-03-05T18:23:26.642112
MEAN_MOTION    = 15.75252468
ECCENTRICITY   = .00014014
INCLINATION    = 97.2848
RA_OF_ASC_NODE = 176.1690
ARG_OF_PERICENTER = 53.9300
MEAN_ANOMALY   = 306.2095

EPHEMERIS_TYPE = 0
CLASSIFICATION_TYPE = U
NORAD_CAT_ID   = 67705
ELEMENT_SET_NO = 999
REV_AT_EPOCH   = 532
BSTAR          = .15147017E-2
MEAN_MOTION_DOT = .23269E-2
MEAN_MOTION_DDOT = 0

CCSDS_OMM_VERS = 2.0
CREATION_DATE  = 
ORIGINATOR     = 

OBJECT_NAME    = STARLINK-36707
OBJECT_ID      = 2026-025P
CENTER_NAME    = EARTH
REF_FRAME      = TEME
TIME_SYSTEM    = UTC
MEAN_ELEMENT_THEORY = SGP/SGP4

EPOCH          = 2026-03-05T22:00:01.999584
MEAN_MOTION    = 15.75181000
ECCENTRICITY   = .00014266
INCLINATION    = 97.2850
RA_OF_ASC_NODE = 176.3751
ARG_OF_PERICENTER = 91.0241
MEAN_ANOMALY   = 153.4379

EPHEMERIS_TYPE = 0
CLASSIFICATION_TYPE = U
NORAD_CAT_ID   = 67706
ELEMENT_SET_NO = 999
REV_AT_EPOCH   = 509
BSTAR          = .43677227E-3
MEAN_MOTION_DOT = .65494E-3
MEAN_MOTION_DDOT = 0

CCSDS_OMM_VERS = 2.0
CREATION_DATE  = 
ORIGINATOR     = 

OBJECT_NAME    = STARLINK-36645
OBJECT_ID      = 2026-025Q
CENTER_NAME    = EARTH
REF_FRAME      = TEME
TIME_SYSTEM    = UTC
MEAN_ELEMENT_THEORY = SGP/SGP4

EPOCH          = 2026-03-05T20:00:30.456576
MEAN_MOTION    = 15.75177742
ECCENTRICITY   = .00012115
INCLINATION    = 97.2856
RA_OF_ASC_NODE = 176.2296
ARG_OF_PERICENTER = 155.8162
MEAN_ANOMALY   = 204.3160

EPHEMERIS_TYPE = 0
CLASSIFICATION_TYPE = U
NORAD_CAT_ID   = 67707
ELEMENT_SET_NO = 999
REV_AT_EPOCH   = 533
BSTAR          = .25585126E-2
MEAN_MOTION_DOT = .399709E-2
MEAN_MOTION_DDOT = 0

CCSDS_OMM_VERS = 2.0
CREATION_DATE  = 
ORIGINATOR     = 

OBJECT_NAME    = STARLINK-36287
OBJECT_ID      = 2026-025R
CENTER_NAME    = EARTH
REF_FRAME      = TEME
TIME_SYSTEM    = UTC
MEAN_ELEMENT_THEORY = SGP/SGP4

EPOCH          = 2026-03-05T22:00:01.999584
MEAN_MOTION    = 15.75205756
ECCENTRICITY   = .00015223
INCLINATION    = 97.2857
RA_OF_ASC_NODE = 176.4039
ARG_OF_PERICENTER = 78.4741
MEAN_ANOMALY   = 235.9827

EPHEMERIS_TYPE = 0
CLASSIFICATION_TYPE = U
NORAD_CAT_ID   = 67708
ELEMENT_SET_NO = 999
REV_AT_EPOCH   = 540
BSTAR          = -.11624399E-3
MEAN_MOTION_DOT = -.17445E-3
MEAN_MOTION_DDOT = 0

CCSDS_OMM_VERS = 2.0
CREATION_DATE  = 
ORIGINATOR     = 

OBJECT_NAME    = STARLINK-36698
OBJECT_ID      = 2026-025S
CENTER_NAME    = EARTH
REF_FRAME      = TEME
TIME_SYSTEM    = UTC
MEAN_ELEMENT_THEORY = SGP/SGP4

EPOCH          = 2026-03-05T22:00:01.999584
MEAN_MOTION    = 15.75210150
ECCENTRICITY   = .00015973
INCLINATION    = 97.2858
RA_OF_ASC_NODE = 176.4223
ARG_OF_PERICENTER = 74.1867
MEAN_ANOMALY   = 284.2808

EPHEMERIS_TYPE = 0
CLASSIFICATION_TYPE = U
NORAD_CAT_ID   = 67709
ELEMENT_SET_NO = 999
REV_AT_EPOCH   = 525
BSTAR          = -.45027352E-3
MEAN_MOTION_DOT = -.66829E-3
MEAN_MOTION_DDOT = 0

